NORAD_CAT_ID,OBJECT_NAME,OBJECT_TYPE,EPOCH,MEAN_MOTION,ECCENTRICITY,INCLINATION,RA_OF_ASC_NODE,ARG_OF_PERICENTER,MEAN_ANOMALY,BSTAR,MEAN_MOTION_DOT,MEAN_MOTION_DDOT,TLE_LINE0,TLE_LINE1,TLE_LINE2,SEMIMAJOR_AXIS,PERIOD,APOGEE,PERIGEE,DECAYED
52656.0,STARLINK-4004,PAYLOAD,2024-03-21 10:49:33,15.08841673,0.0001685,53.2174,138.433,106.6209,253.4968,4.8006e-05,4.76e-06,0.0,0 STARLINK-4004,1 52656U 22053A   24081.45108451  .00000476  00000-0  48006-4 0  9998,2 52656  53.2174 138.4330 0001685 106.6209 253.4968 15.08841673102681,6917.875,95.437,540.906,538.575,0.0
52656.0,STARLINK-4004,PAYLOAD,2024-03-21 14:00:19,15.08849585,0.0001424,53.216,137.8329,86.0101,274.1054,5.4981e-05,5.87e-06,0.0,0 STARLINK-4004,1 52656U 22053A   24081.58355960  .00000587  00000-0  54981-4 0  9993,2 52656  53.2160 137.8329 0001424  86.0101 274.1054 15.08849585102709,6917.851,95.437,540.701,538.731,0.0
52656.0,STARLINK-4004,PAYLOAD,2024-03-22 12:15:43,15.08848927,0.0001591,53.2172,133.6685,94.0697,266.0477,0.00017289,2.465e-05,0.0,0 STARLINK-4004,1 52656U 22053A   24082.51091551  .00002465  00000-0  17289-3 0  9996,2 52656  53.2172 133.6685 0001591  94.0697 266.0477 15.08848927102848,6917.853,95.437,540.819,538.617,0.0
52656.0,STARLINK-4004,PAYLOAD,2024-03-23 12:06:32,15.08834879,0.0001589,53.217,129.2096,95.329,264.7883,-5.6998e-05,-1.195e-05,0.0,0 STARLINK-4004,1 52656U 22053A   24083.50453829 -.00001195  00000-0 -56998-4 0  9998,2 52656  53.2170 129.2096 0001589  95.3290 264.7883 15.08834879102996,6917.896,95.438,540.86,538.662,0.0
52656.0,STARLINK-4004,PAYLOAD,2024-03-23 20:03:27,15.08839715,0.0001591,53.2172,127.7227,94.1341,265.9833,1.859e-05,8e-08,0.0,0 STARLINK-4004,1 52656U 22053A   24083.83573385  .00000008  00000-0  18590-4 0  9990,2 52656  53.2172 127.7227 0001591  94.1341 265.9833 15.08839715103043,6917.881,95.438,540.847,538.646,0.0
52656.0,STARLINK-4004,PAYLOAD,2024-03-24 11:57:18,15.08842762,0.0001639,53.2172,124.7495,87.5366,272.5814,-6.3446e-05,-1.298e-05,0.0,0 STARLINK-4004,1 52656U 22053A   24084.49812500 -.00001298  00000-0 -63446-4 0  9992,2 52656  53.2172 124.7495 0001639  87.5366 272.5814 15.08842762103143,6917.872,95.437,540.871,538.603,0.0
52656.0,STARLINK-4004,PAYLOAD,2024-03-24 19:54:14,15.08837863,0.0001686,53.2166,123.2603,87.2696,272.8489,-0.0001179,-2.164e-05,0.0,0 STARLINK-4004,1 52656U 22053A   24084.82933129 -.00002164  00000-0 -11790-3 0  9997,2 52656  53.2166 123.2603 0001686  87.2696 272.8489 15.08837863103198,6917.887,95.438,540.918,538.586,0.0
52656.0,STARLINK-4004,PAYLOAD,2024-03-25 02:15:47,15.08827211,0.0001688,53.2163,122.0725,102.9923,257.1258,4.9859e-05,5.05e-06,0.0,0 STARLINK-4004,1 52656U 22053A   24085.09430113  .00000505  00000-0  49859-4 0  9995,2 52656  53.2163 122.0725 0001688 102.9923 257.1258 15.08827211103238,6917.919,95.438,540.952,538.617,0.0
52656.0,STARLINK-4004,PAYLOAD,2024-03-25 19:45:01,15.08831514,0.0001615,53.2145,118.8033,92.7399,267.3778,-3.1719e-05,-7.93e-06,0.0,0 STARLINK-4004,1 52656U 22053A   24085.82293916 -.00000793  00000-0 -31719-4 0  9991,2 52656  53.2145 118.8033 0001615  92.7399 267.3778 15.08831514103349,6917.906,95.438,540.889,538.654,0.0
52656.0,STARLINK-4004,PAYLOAD,2024-03-26 08:28:07,15.08845092,0.0001904,53.2169,116.4223,97.3538,262.7671,-0.00033818,-5.667e-05,0.0,0 STARLINK-4004,1 52656U 22053A   24086.35286286 -.00005667  00000-0 -33818-3 0  9998,2 52656  53.2169 116.4223 0001904  97.3538 262.7671 15.08845092103423,6917.865,95.437,541.047,538.413,0.0
52656.0,STARLINK-4004,PAYLOAD,2024-03-27 05:08:08,15.08826533,0.0001532,53.2182,112.5573,103.5498,256.5665,0.00029624,4.428e-05,0.0,0 STARLINK-4004,1 52656U 22053A   24087.21398583  .00004428  00000-0  29624-3 0  9990,2 52656  53.2182 112.5573 0001532 103.5498 256.5665 15.08826533103552,6917.922,95.438,540.846,538.727,0.0
52656.0,STARLINK-4004,PAYLOAD,2024-03-27 11:29:40,15.08843514,0.0001874,53.2175,111.3672,103.071,257.0491,0.00016266,2.302e-05,0.0,0 STARLINK-4004,1 52656U 22053A   24087.47893988  .00002302  00000-0  16266-3 0  9994,2 52656  53.2175 111.3672 0001874 103.0710 257.0491 15.08843514103597,6917.87,95.437,541.031,538.438,0.0
52656.0,STARLINK-4004,PAYLOAD,2024-03-28 04:58:55,15.08838121,0.0001846,53.2173,108.0946,107.4589,252.6605,0.0002812,4.19e-05,0.0,0 STARLINK-4004,1 52656U 22053A   24088.20758460  .00004190  00000-0  28120-3 0  9990,2 52656  53.2173 108.0946 0001846 107.4589 252.6605 15.08838121103702,6917.886,95.438,541.028,538.474,0.0
52656.0,STARLINK-4004,PAYLOAD,2024-03-28 08:09:41,15.08846728,0.000165,53.2152,107.5008,93.5887,266.5294,0.00035745,5.406e-05,0.0,0 STARLINK-4004,1 52656U 22053A   24088.34006455  .00005406  00000-0  35745-3 0  9997,2 52656  53.2152 107.5008 0001650  93.5887 266.5294 15.08846728103723,6917.86,95.437,540.866,538.583,0.0
52656.0,STARLINK-4004,PAYLOAD,2024-03-28 17:42:00,15.08848796,0.00016,53.216,105.7171,92.2551,267.8625,0.0001766,2.524e-05,0.0,0 STARLINK-4004,1 52656U 22053A   24088.73750073  .00002524  00000-0  17660-3 0  9996,2 52656  53.2160 105.7171 0001600  92.2551 267.8625 15.08848796103787,6917.854,95.437,540.825,538.612,0.0
52656.0,STARLINK-4004,PAYLOAD,2024-03-29 08:00:28,15.0884578,0.0001761,53.218,103.0458,104.6422,255.4766,3.8417e-05,3.23e-06,0.0,0 STARLINK-4004,1 52656U 22053A   24089.33366364  .00000323  00000-0  38417-4 0  9998,2 52656  53.2180 103.0458 0001761 104.6422 255.4766 15.08845780103870,6917.863,95.437,540.946,538.509,0.0
52656.0,STARLINK-4004,PAYLOAD,2024-03-29 17:32:47,15.08846762,0.0001764,53.2177,101.2614,105.4007,254.718,-1.7861e-05,-5.72e-06,0.0,0 STARLINK-4004,1 52656U 22053A   24089.73110238 -.00000572  00000-0 -17861-4 0  9997,2 52656  53.2177 101.2614 0001764 105.4007 254.7180 15.08846762103931,6917.86,95.437,540.945,538.504,0.0
52656.0,STARLINK-4004,PAYLOAD,2024-03-30 09:26:38,15.08818911,0.0001931,53.2179,98.287,105.4386,254.6819,0.00046954,7.188e-05,0.0,0 STARLINK-4004,1 52656U 22053A   24090.39350474  .00007188  00000-0  46954-3 0  9991,2 52656  53.2179  98.2870 0001931 105.4386 254.6819 15.08818911104033,6917.945,95.439,541.146,538.474,0.0
52656.0,STARLINK-4004,PAYLOAD,2024-03-30 17:23:34,15.0884155,0.0001707,53.2177,96.7995,97.8575,262.2611,5.9779e-06,-1.93e-06,0.0,0 STARLINK-4004,1 52656U 22053A   24090.72470132 -.00000193  00000-0  59779-5 0  9993,2 52656  53.2177  96.7995 0001707  97.8575 262.2611 15.08841550104082,6917.876,95.437,540.922,538.56,0.0
52656.0,STARLINK-4004,PAYLOAD,2024-03-31 09:17:25,15.08839703,0.0001608,53.2166,93.8243,92.2606,267.857,2.9846e-05,1.87e-06,0.0,0 STARLINK-4004,1 52656U 22053A   24091.38710266  .00000187  00000-0  29846-4 0  9994,2 52656  53.2166  93.8243 0001608  92.2606 267.8570 15.08839703104181,6917.881,95.438,540.859,538.634,0.0
52656.0,STARLINK-4004,PAYLOAD,2024-03-31 17:14:21,15.08838576,0.000162,53.2175,92.3361,86.5185,273.5992,-4.2889e-05,-9.71e-06,0.0,0 STARLINK-4004,1 52656U 22053A   24091.71830531 -.00000971  00000-0 -42889-4 0  9994,2 52656  53.2175  92.3361 0001620  86.5185 273.5992 15.08838576104233,6917.885,95.438,540.87,538.629,0.0
52656.0,STARLINK-4004,PAYLOAD,2024-04-01 09:08:12,15.08840538,0.0001611,53.2171,89.3633,89.8474,270.2703,-4.4099e-06,-3.58e-06,0.0,0 STARLINK-4004,1 52656U 22053A   24092.38070541 -.00000358  00000-0 -44099-5 0  9990,2 52656  53.2171  89.3633 0001611  89.8474 270.2703 15.08840538104330,6917.879,95.438,540.858,538.629,0.0
52656.0,STARLINK-4004,PAYLOAD,2024-04-02 05:48:13,15.08843219,0.0001554,53.2168,85.4966,88.3319,271.7851,0.00012692,1.733e-05,0.0,0 STARLINK-4004,1 52656U 22053A   24093.24181976  .00001733  00000-0  12692-3 0  9999,2 52656  53.2168  85.4966 0001554  88.3319 271.7851 15.08843219104463,6917.871,95.437,540.811,538.661,0.0
52656.0,STARLINK-4004,PAYLOAD,2024-04-02 08:58:59,15.08846632,0.0001535,53.2169,84.9019,88.6922,271.4246,0.00012243,1.661e-05,0.0,0 STARLINK-4004,1 52656U 22053A   24093.37429760  .00001661  00000-0  12243-3 0  9991,2 52656  53.2169  84.9019 0001535  88.6922 271.4246 15.08846632104488,6917.86,95.437,540.787,538.663,0.0
52656.0,STARLINK-4004,PAYLOAD,2024-04-02 23:17:28,15.08838812,0.0001632,53.2175,82.225,93.1573,266.9606,8.6826e-05,1.094e-05,0.0,0 STARLINK-4004,1 52656U 22053A   24093.97046352  .00001094  00000-0  86826-4 0  9998,2 52656  53.2175  82.2250 0001632  93.1573 266.9606 15.08838812104574,6917.884,95.438,540.878,538.62,0.0
52656.0,STARLINK-4004,PAYLOAD,2024-04-03 05:39:00,15.0884117,0.0001681,53.2179,81.0354,93.1137,267.0047,9.1983e-05,1.176e-05,0.0,0 STARLINK-4004,1 52656U 22053A   24094.23542186  .00001176  00000-0  91983-4 0  9995,2 52656  53.2179  81.0354 0001681  93.1137 267.0047 15.08841170104617,6917.877,95.437,540.905,538.579,0.0
52656.0,STARLINK-4004,PAYLOAD,2024-04-03 08:49:46,15.08843095,0.0001446,53.2172,80.4413,93.571,266.5448,5.417e-05,5.74e-06,0.0,0 STARLINK-4004,1 52656U 22053A   24094.36790136  .00000574  00000-0  54170-4 0  9997,2 52656  53.2172  80.4413 0001446  93.5710 266.5448 15.08843095104638,6917.871,95.437,540.736,538.736,0.0
52656.0,STARLINK-4004,PAYLOAD,2024-04-04 08:40:33,15.08842523,0.0001392,53.2173,75.9823,88.6953,271.4198,1.5749e-07,-2.85e-06,0.0,0 STARLINK-4004,1 52656U 22053A   24095.36150248 -.00000285  00000-0  15749-6 0  9993,2 52656  53.2173  75.9823 0001392  88.6953 271.4198 15.08842523104785,6917.873,95.437,540.701,538.775,0.0
52656.0,STARLINK-4004,PAYLOAD,2024-04-05 14:52:53,15.08841303,0.000138,53.2169,70.3314,88.1588,271.9562,-3.1296e-05,-7.86e-06,0.0,0 STARLINK-4004,1 52656U 22053A   24096.62006320 -.00000786  00000-0 -31296-4 0  9994,2 52656  53.2169  70.3314 0001380  88.1588 271.9562 15.08841303104976,6917.876,95.437,540.696,538.787,0.0
52656.0,STARLINK-4004,PAYLOAD,2024-04-05 21:14:26,15.08831936,0.0001309,53.2173,69.1428,91.69,268.4242,6.0311e-05,6.72e-06,0.0,0 STARLINK-4004,1 52656U 22053A   24096.88502715  .00000672  00000-0  60311-4 0  9993,2 52656  53.2173  69.1428 0001309  91.6900 268.4242 15.08831936105014,6917.905,95.438,540.676,538.864,0.0
